NORAD_CAT_ID,OBJECT_NAME,OBJECT_TYPE,EPOCH,MEAN_MOTION,ECCENTRICITY,INCLINATION,RA_OF_ASC_NODE,ARG_OF_PERICENTER,MEAN_ANOMALY,BSTAR,MEAN_MOTION_DOT,MEAN_MOTION_DDOT,TLE_LINE0,TLE_LINE1,TLE_LINE2,SEMIMAJOR_AXIS,PERIOD,APOGEE,PERIGEE,DECAYED
54191.0,STARLINK-4619,PAYLOAD,2024-01-04 04:57:53,15.08847901,0.0001523,53.2173,325.419,88.4131,271.7035,7.7671e-05,9.49e-06,0.0,0 STARLINK-4619,1 54191U 22141AL  24004.20687355  .00000949  00000-0  77671-4 0  9990,2 54191  53.2173 325.4190 0001523  88.4131 271.7035 15.08847901 65901,6917.856,95.437,540.775,538.668,0.0
54191.0,STARLINK-4619,PAYLOAD,2024-01-04 20:51:45,15.08839395,0.0001555,53.2165,322.4523,79.214,280.9028,0.00014144,1.964e-05,0.0,0 STARLINK-4619,1 54191U 22141AL  24004.86927950  .00001964  00000-0  14144-3 0  9993,2 54191  53.2165 322.4523 0001555  79.2140 280.9028 15.08839395 66231,6917.882,95.438,540.823,538.672,0.0
54191.0,STARLINK-4619,PAYLOAD,2024-01-05 03:13:18,15.08840998,0.0001538,53.2167,321.2593,86.5716,273.5452,0.00016169,2.286e-05,0.0,0 STARLINK-4619,1 54191U 22141AL  24005.13423942  .00002286  00000-0  16169-3 0  9993,2 54191  53.2167 321.2593 0001538  86.5716 273.5452 15.08840998 66047,6917.877,95.437,540.806,538.678,0.0
54191.0,STARLINK-4619,PAYLOAD,2024-01-05 20:42:32,15.08843671,0.000157,53.2167,317.9882,87.7928,272.3244,8.0776e-05,9.98e-06,0.0,0 STARLINK-4619,1 54191U 22141AL  24005.86287906  .00000998  00000-0  80776-4 0  9995,2 54191  53.2167 317.9882 0001570  87.7928 272.3244 15.08843671 66153,6917.869,95.437,540.82,538.648,0.0
54191.0,STARLINK-4619,PAYLOAD,2024-01-06 03:04:05,15.08848292,0.0001479,53.2168,316.7988,94.9052,265.2109,0.00017325,2.471e-05,0.0,0 STARLINK-4619,1 54191U 22141AL  24006.12783577  .00002471  00000-0  17325-3 0  9997,2 54191  53.2168 316.7988 0001479  94.9052 265.2109 15.08848292 66429,6917.855,95.437,540.743,538.697,0.0
54191.0,STARLINK-4619,PAYLOAD,2024-01-06 06:14:51,15.08851107,0.0001482,53.2167,316.2036,97.7685,262.3475,0.00019401,2.802e-05,0.0,0 STARLINK-4619,1 54191U 22141AL  24006.26031379  .00002802  00000-0  19401-3 0  9993,2 54191  53.2167 316.2036 0001482  97.7685 262.3475 15.08851107 66214,6917.846,95.437,540.737,538.686,0.0
54191.0,STARLINK-4619,PAYLOAD,2024-01-07 02:54:52,15.08841417,0.000156,53.2175,312.3386,85.2158,274.9012,4.6518e-05,4.52e-06,0.0,0 STARLINK-4619,1 54191U 22141AL  24007.12144009  .00000452  00000-0  46518-4 0  9993,2 54191  53.2175 312.3386 0001560  85.2158 274.9012 15.08841417 66570,6917.876,95.437,540.82,538.662,0.0
54191.0,STARLINK-4619,PAYLOAD,2024-01-07 06:05:38,15.0884393,0.000148,53.2177,311.7427,94.8228,265.2933,4.0219e-05,3.52e-06,0.0,0 STARLINK-4619,1 54191U 22141AL  24007.25391810  .00000352  00000-0  40219-4 0  9992,2 54191  53.2177 311.7427 0001480  94.8228 265.2933 15.08843930 66360,6917.868,95.437,540.757,538.71,0.0
54191.0,STARLINK-4619,PAYLOAD,2024-01-08 02:45:38,15.08854594,0.0001557,53.2167,307.8768,92.1667,267.9503,0.00020738,3.015e-05,0.0,0 STARLINK-4619,1 54191U 22141AL  24008.11503117  .00003015  00000-0  20738-3 0  9995,2 54191  53.2167 307.8768 0001557  92.1667 267.9503 15.08854594 66726,6917.836,95.437,540.778,538.624,0.0
54191.0,STARLINK-4619,PAYLOAD,2024-01-08 05:56:24,15.08856942,0.0001551,53.2168,307.2817,93.1132,267.0038,0.00024243,3.574e-05,0.0,0 STARLINK-4619,1 54191U 22141AL  24008.24750930  .00003574  00000-0  24243-3 0  9991,2 54191  53.2168 307.2817 0001551  93.1132 267.0038 15.08856942 66518,6917.829,95.436,540.767,538.621,0.0
54191.0,STARLINK-4619,PAYLOAD,2024-01-08 21:50:16,15.08838077,0.0001505,53.2187,304.301,116.0995,244.0152,-1.2761e-05,-4.91e-06,0.0,0 STARLINK-4619,1 54191U 22141AL  24008.90991325 -.00000491  00000-0 -12761-4 0  9999,2 54191  53.2187 304.3010 0001505 116.0995 244.0152 15.08838077 66615,6917.886,95.438,540.792,538.71,0.0
54191.0,STARLINK-4619,PAYLOAD,2024-01-09 02:36:26,15.0884145,0.0001578,53.218,303.4095,108.7136,251.4028,6.3375e-05,7.21e-06,0.0,0 STARLINK-4619,1 54191U 22141AL  24009.10863600  .00000721  00000-0  63375-4 0  9997,2 54191  53.2180 303.4095 0001578 108.7136 251.4028 15.08841450 66877,6917.876,95.437,540.833,538.649,0.0
54191.0,STARLINK-4619,PAYLOAD,2024-01-09 18:30:17,15.08837367,0.0001408,53.2165,300.4432,105.0894,255.0254,5.8151e-06,-1.95e-06,0.0,0 STARLINK-4619,1 54191U 22141AL  24009.77103968 -.00000195  00000-0  58151-5 0  9997,2 54191  53.2165 300.4432 0001408 105.0894 255.0254 15.08837367 66744,6917.888,95.438,540.727,538.779,0.0
54191.0,STARLINK-4619,PAYLOAD,2024-01-10 04:02:36,15.08846937,0.0001396,53.2169,298.6585,94.5013,265.6139,5.3366e-05,5.62e-06,0.0,0 STARLINK-4619,1 54191U 22141AL  24010.16847597  .00000562  00000-0  53366-4 0  9994,2 54191  53.2169 298.6585 0001396  94.5013 265.6139 15.08846937 67031,6917.859,95.437,540.69,538.758,0.0
54191.0,STARLINK-4619,PAYLOAD,2024-01-11 03:53:23,15.08855182,0.0001353,53.2165,294.199,98.1695,261.9451,0.00045013,6.886e-05,0.0,0 STARLINK-4619,1 54191U 22141AL  24011.16207656  .00006886  00000-0  45013-3 0  9995,2 54191  53.2165 294.1990 0001353  98.1695 261.9451 15.08855182 66955,6917.834,95.437,540.635,538.763,0.0
54191.0,STARLINK-4619,PAYLOAD,2024-01-11 18:11:52,15.08838164,0.0001545,53.2174,291.522,92.2819,267.835,4.4719e-05,4.24e-06,0.0,0 STARLINK-4619,1 54191U 22141AL  24011.75824390  .00000424  00000-0  44719-4 0  9995,2 54191  53.2174 291.5220 0001545  92.2819 267.8350 15.08838164 67278,6917.886,95.438,540.82,538.682,0.0
54191.0,STARLINK-4619,PAYLOAD,2024-01-12 03:44:10,15.08850332,0.000154,53.2172,289.7386,85.6877,274.4291,0.00028241,4.211e-05,0.0,0 STARLINK-4619,1 54191U 22141AL  24012.15567987  .00004211  00000-0  28241-3 0  9995,2 54191  53.2172 289.7386 0001540  85.6877 274.4291 15.08850332 67339,6917.849,95.437,540.779,538.648,0.0
54191.0,STARLINK-4619,PAYLOAD,2024-01-12 22:48:48,15.08836549,0.0002009,53.2178,286.1628,145.2603,214.8521,-2.8259e-05,-7.38e-06,0.0,0 STARLINK-4619,1 54191U 22141AL  24012.95056422 -.00000738  00000-0 -28259-4 0  9992,2 54191  53.2178 286.1628 0002009 145.2603 214.8521 15.08836549 67222,6917.891,95.438,541.146,538.366,0.0
54191.0,STARLINK-4619,PAYLOAD,2024-01-13 00:24:12,15.08839049,0.0001493,53.2164,285.8725,86.8655,273.2508,9.6651e-05,1.251e-05,0.0,0 STARLINK-4619,1 54191U 22141AL  24013.01680749  .00001251  00000-0  96651-4 0  9995,2 54191  53.2164 285.8725 0001493  86.8655 273.2508 15.08839049 67462,6917.883,95.438,540.781,538.715,0.0
54191.0,STARLINK-4619,PAYLOAD,2024-01-14 03:25:45,15.08857736,0.0001552,53.2154,280.8171,91.6867,268.4303,0.00078036,0.00012159,0.0,0 STARLINK-4619,1 54191U 22141AL  24014.14288715  .00012159  00000-0  78036-3 0  9992,2 54191  53.2154 280.8171 0001552  91.6867 268.4303 15.08857736 67637,6917.826,95.436,540.765,538.618,0.0
54191.0,STARLINK-4619,PAYLOAD,2024-01-14 22:30:23,15.08848433,0.0001412,53.215,277.252,75.0812,285.0337,0.0002436,3.592e-05,0.0,0 STARLINK-4619,1 54191U 22141AL  24014.93776758  .00003592  00000-0  24360-3 0  9990,2 54191  53.2150 277.2520 0001412  75.0812 285.0337 15.08848433 67526,6917.855,95.437,540.696,538.743,0.0
54191.0,STARLINK-4619,PAYLOAD,2024-01-15 03:16:31,15.08855216,0.0001861,53.2164,276.35,125.3133,234.8033,0.0004172,6.361e-05,0.0,0 STARLINK-4619,1 54191U 22141AL  24015.13648101  .00006361  00000-0  41720-3 0  9999,2 54191  53.2164 276.3500 0001861 125.3133 234.8033 15.08855216 67782,6917.834,95.437,540.986,538.411,0.0
54191.0,STARLINK-4619,PAYLOAD,2024-01-15 20:45:45,15.08859363,0.0001556,53.2155,273.0822,124.1424,235.9716,0.00019747,2.858e-05,0.0,0 STARLINK-4619,1 54191U 22141AL  24015.86511223  .00002858  00000-0  19747-3 0  9994,2 54191  53.2155 273.0822 0001556 124.1424 235.9716 15.08859363 67668,6917.821,95.436,540.763,538.61,0.0
54191.0,STARLINK-4619,PAYLOAD,2024-01-15 23:56:31,15.08861972,0.0001456,53.2161,272.4872,116.1631,243.9511,0.00022678,3.325e-05,0.0,0 STARLINK-4619,1 54191U 22141AL  24015.99758915  .00003325  00000-0  22678-3 0  9996,2 54191  53.2161 272.4872 0001456 116.1631 243.9511 15.08861972 67686,6917.813,95.436,540.685,538.671,0.0
54191.0,STARLINK-4619,PAYLOAD,2024-01-16 19:01:10,15.08832566,0.0001441,53.2161,268.9183,126.607,233.5054,-0.00025038,-4.27e-05,0.0,0 STARLINK-4619,1 54191U 22141AL  24016.79248287 -.00004270  00000-0 -25038-3 0  9996,2 54191  53.2161 268.9183 0001441 126.6070 233.5054 15.08832566 68032,6917.903,95.438,540.765,538.771,0.0
54191.0,STARLINK-4619,PAYLOAD,2024-01-16 22:11:56,15.08831432,0.0001361,53.2156,268.3249,120.9392,239.1734,-0.00025593,-4.358e-05,0.0,0 STARLINK-4619,1 54191U 22141AL  24016.92496409 -.00004358  00000-0 -25593-3 0  9995,2 54191  53.2156 268.3249 0001361 120.9392 239.1734 15.08831432 67822,6917.907,95.438,540.713,538.83,0.0
54191.0,STARLINK-4619,PAYLOAD,2024-01-17 20:27:21,15.08831613,0.0001164,53.2157,264.1636,114.3344,245.777,-0.00014067,-2.525e-05,0.0,0 STARLINK-4619,1 54191U 22141AL  24017.85233083 -.00002525  00000-0 -14067-3 0  9993,2 54191  53.2157 264.1636 0001164 114.3344 245.7770 15.08831613 68197,6917.906,95.438,540.576,538.966,0.0
54191.0,STARLINK-4619,PAYLOAD,2024-01-18 01:13:30,15.08840874,0.000118,53.216,263.2703,117.1527,242.9585,-0.00011648,-2.141e-05,0.0,0 STARLINK-4619,1 54191U 22141AL  24018.05104710 -.00002141  00000-0 -11648-3 0  9996,2 54191  53.2160 263.2703 0001180 117.1527 242.9585 15.08840874 68224,6917.878,95.437,540.559,538.926,0.0
54191.0,STARLINK-4619,PAYLOAD,2024-01-18 21:53:31,15.08846519,0.0001164,53.2139,259.4085,117.3585,242.7525,0.00019237,2.776e-05,0.0,0 STARLINK-4619,1 54191U 22141AL  24018.91217174  .00002776  00000-0  19237-3 0  9994,2 54191  53.2139 259.4085 0001164 117.3585 242.7525 15.08846519 68121,6917.86,95.437,540.531,538.92,0.0
54191.0,STARLINK-4619,PAYLOAD,2024-01-19 01:04:18,15.08850435,0.0001155,53.2148,258.8119,107.0384,253.0735,0.00053414,8.226e-05,0.0,0 STARLINK-4619,1 54191U 22141AL  24019.04465307  .00008226  00000-0  53414-3 0  9993,2 54191  53.2148 258.8119 0001155 107.0384 253.0735 15.08850435 68147,6917.848,95.437,540.513,538.914,0.0
